[{"OBJECT_NAME":"NANOACE","OBJECT_ID":"2017-042V","EPOCH":"2026-03-09T10:49:24.913920","MEAN_MOTION":15.22047259,"ECCENTRICITY":0.0004338,"INCLINATION":97.3683,"RA_OF_ASC_NODE":244.5146,"ARG_OF_PERICENTER":18.2396,"MEAN_ANOMALY":341.8995,"EPHEMERIS_TYPE":0,"CLASSIFICATION_TYPE":"U","NORAD_CAT_ID":42844,"ELEMENT_SET_NO":999,"REV_AT_EPOCH":47289,"BSTAR":0.00068471795,"MEAN_MOTION_DOT":0.0001561,"MEAN_MOTION_DDOT":0},{"OBJECT_NAME":"POLYTECH-UNIVERSE 3 (RS46S)","OBJECT_ID":"2023-091AB","EPOCH":"2026-03-09T23:26:37.673088","MEAN_MOTION":15.18102693,"ECCENTRICITY":0.00173309,"INCLINATION":97.5173,"RA_OF_ASC_NODE":127.4169,"ARG_OF_PERICENTER":113.2405,"MEAN_ANOMALY":247.0656,"EPHEMERIS_TYPE":0,"CLASSIFICATION_TYPE":"U","NORAD_CAT_ID":57191,"ELEMENT_SET_NO":999,"REV_AT_EPOCH":14889,"BSTAR":0.00036949937,"MEAN_MOTION_DOT":7.497e-5,"MEAN_MOTION_DDOT":0}]
